{"type":"FeatureCollection","name":"ne_110m_lakes","crs":{"type":"name","properties":{"name":"urn:ogc:def:crs:OGC:1.3:CRS84"}},"features":[{"type":"Feature","properties":{"scalerank":0,"featurecla":"Lake","name":"Lake Baikal","name_alt":null,"admin":null,"min_zoom":1,"min_label":3,"name_abb":"L. Baikal","label":"Lake Baikal","wikidataid":"Q5513","name_ar":"بحيرة بايكال","name_bn":"বৈকাল হ্রদ","name_de":"Baikalsee","name_en":"Baikal","name_es":"Baikal","name_fr":"Baïkal","name_el":"Βαϊκάλη","name_hi":"बयकाल झील","name_hu":"Bajkál-tó","name_id":"Danau Baikal","name_it":"Bajkal","name_ja":"バイカル湖","name_ko":"바이칼호","name_nl":"Baikalmeer","name_pl":"Bajkał","name_pt":"Baikal","name_ru":"Байкал","name_sv":"Bajkalsjön","name_tr":"Baykal","name_vi":"Baikal","name_zh":"贝加尔湖","ne_id":1159113127,"name_fa":"دریاچه بایکال","name_he":"ימת באיקל","name_uk":"Байкал","name_ur":"جھیل بیکال","name_zht":"贝加尔湖"},"bbox":[103.620011,51.460012,109.929807,55.730914],"geometry":{"type":"Polygon","coordinates":[[[106.579986,52.799982],[106.539988,52.939999],[107.080007,53.18001],[107.299994,53.379998],[107.599975,53.519989],[108.039948,53.859969],[108.379979,54.259996],[109.052703,55.027598],[109.19347,55.535603],[109.506991,55.730914],[109.929807,55.712956],[109.700002,54.980004],[109.660005,54.719994],[109.479964,54.339991],[109.319974,53.819997],[109.220031,53.619983],[108.999993,53.780025],[108.600018,53.439994],[108.800005,53.379998],[108.760008,53.200009],[108.459974,53.140013],[108.179991,52.799982],[107.799963,52.579995],[107.319992,52.420005],[106.640034,52.320011],[106.100015,52.039976],[105.740037,51.759993],[105.240016,51.520008],[104.81999,51.460012],[104.300022,51.500009],[103.760003,51.600003],[103.620011,51.739995],[103.859997,51.859987],[104.399964,51.859987],[105.059975,52.000005],[105.480001,52.280013],[105.980022,52.519999],[106.260005,52.619993],[106.579986,52.799982]]]}},{"type":"Feature","properties":{"scalerank":0,"featurecla":"Lake","name":"Lake Winnipeg","name_alt":null,"admin":null,"min_zoom":1,"min_label":3,"name_abb":"L. Winnipeg","label":"Lake Winnipeg","wikidataid":"Q3272","name_ar":"بحيرة وينيبيغ","name_bn":"লেক উইন্নিপেগ","name_de":"Winnipegsee","name_en":"Winnipeg","name_es":"Winnipeg","name_fr":"Winnipeg","name_el":"Λίμνη Γουίνιπεγκ","name_hi":"विनिपेग झील","name_hu":"Winnipeg-tó","name_id":"Danau Winnipeg","name_it":"Winnipeg","name_ja":"ウィニペグ湖","name_ko":"위니펙호","name_nl":"Winnipegmeer","name_pl":"Winnipeg","name_pt":"Winnipeg","name_ru":"Виннипег","name_sv":"Winnipegsjön","name_tr":"Winnipeg","name_vi":"Winnipeg","name_zh":"溫尼伯湖","ne_id":1159106747,"name_fa":"دریاچه وینیپگ","name_he":"אגם ויניפג","name_uk":"Вінніпег","name_ur":"جھیل ونیپیگ","name_zht":"溫尼伯湖"},"bbox":[-99.236805,50.448911,-96.237893,54.337097],"geometry":{"type":"Polygon","coordinates":[[[-98.955401,53.929783],[-97.957995,54.337097],[-97.805006,54.059388],[-97.643802,53.425215],[-96.392586,51.397302],[-96.237893,50.691015],[-96.725589,50.448911],[-96.921107,50.75406],[-97.235687,51.497787],[-98.200977,52.184567],[-99.236805,53.216287],[-98.955401,53.929783]]]}},{"type":"Feature","properties":{"scalerank":0,"featurecla":"Lake","name":"Great Slave Lake","name_alt":null,"admin":null,"min_zoom":1,"min_label":3,"name_abb":"Great Slave L.","label":"Great Slave Lake","wikidataid":"Q5539","name_ar":"بحيرة جريت سليف","name_bn":"গ্রেট স্লেভ লেক","name_de":"Großer Sklavensee","name_en":"Great Slave","name_es":"Gran Esclavo","name_fr":"Grand Esclaves","name_el":"Μεγάλη Λίμνη των Σκλάβων","name_hi":"ग्रेट स्लाव झील","name_hu":"Nagy-Rabszolga-tó","name_id":"Danau Great Slave","name_it":"Grande Schiavi","name_ja":"グレートスレーブ湖","name_ko":"그레이트슬레이브호","name_nl":"Great Slave","name_pl":"Wielkie Jezioro Niewolnicze","name_pt":"Grande Escravo","name_ru":"Большое Невольничье озеро","name_sv":"Stora Slavsjön","name_tr":"Büyük Esir","name_vi":"Slave Lớn","name_zh":"大奴湖","ne_id":1159106729,"name_fa":"دریاچه گریت اسلیو","name_he":"ימת העבדים הגדולה","name_uk":"Велике Невільниче озеро","name_ur":"گریٹ سلیو جھیل","name_zht":"大奴湖"},"bbox":[-118.384991,60.860006,-109.090106,63.08],"geometry":{"type":"Polygon","coordinates":[[[-115,61.972393],[-115.806698,62.541713],[-116.058595,62.778804],[-115.842794,62.750304],[-114.452595,62.428205],[-113.353411,62.044482],[-111.778908,62.443605],[-111.040013,62.92001],[-110.200012,63.08],[-109.400009,62.878178],[-109.090106,62.814099],[-109.116512,62.692814],[-110.100897,62.515616],[-111.275993,62.349114],[-112.63051,61.559912],[-113.640009,61.079993],[-115.34099,60.876595],[-116.439993,60.860006],[-118.061109,61.311968],[-118.347474,61.361371],[-118.384991,61.521103],[-118.179603,61.556295],[-116.802813,61.325895],[-115.678799,61.69179],[-115,61.972393]]]}},{"type":"Feature","properties":{"scalerank":0,"featurecla":"Lake","name":"Lake Ontario","name_alt":"Great Lakes","admin":"admin-0","min_zoom":1,"min_label":3,"name_abb":"L. Ontario","label":"Lake Ontario","wikidataid":"Q1062","name_ar":"بحيرة أونتاريو","name_bn":"লেক অন্টারিও","name_de":"Ontariosee","name_en":"Ontario","name_es":"Ontario","name_fr":"Ontario","name_el":"Λίμνη Οντάριο","name_hi":"ओण्टारियो झील","name_hu":"Ontario-tó","name_id":"Danau Ontario","name_it":"Ontario","name_ja":"オンタリオ湖","name_ko":"온타리오호","name_nl":"Ontariomeer","name_pl":"Ontario","name_pt":"Ontário","name_ru":"Онтарио","name_sv":"Ontariosjön","name_tr":"Ontario","name_vi":"Ontario","name_zh":"安大略湖","ne_id":1159106765,"name_fa":"دریاچه انتاریو","name_he":"ימת אונטריו","name_uk":"Онтаріо","name_ur":"جھیل انٹاریو","name_zht":"安大略湖"},"bbox":[-79.760475,43.202376,-76.179996,44.208025],"geometry":{"type":"Polygon","coordinates":[[[-79.056306,43.254104],[-79.361688,43.202376],[-79.760475,43.297202],[-79.461165,43.639197],[-79.156171,43.757433],[-78.450529,43.903186],[-77.605361,44.039328],[-77.161486,43.85014],[-76.882692,44.069455],[-76.565554,44.208025],[-76.353034,44.134671],[-76.239269,43.97915],[-76.179996,43.590001],[-76.930002,43.259995],[-77.749151,43.342833],[-78.534994,43.379988],[-79.056306,43.254104]]]}},{"type":"Feature","properties":{"scalerank":0,"featurecla":"Lake","name":"Lake Erie","name_alt":"Great Lakes","admin":"admin-0","min_zoom":1,"min_label":3,"name_abb":"L. Erie","label":"Lake Erie","wikidataid":"Q5492","name_ar":"بحيرة إري","name_bn":"ইরি হ্রদ","name_de":"Eriesee","name_en":"Erie","name_es":"Erie","name_fr":"Érié","name_el":"Λίμνη Ήρι","name_hi":"ईरी झील","name_hu":"Erie-tó","name_id":"Danau Erie","name_it":"Erie","name_ja":"エリー湖","name_ko":"이리호","name_nl":"Eriemeer","name_pl":"Erie","name_pt":"Erie","name_ru":"Эри","name_sv":"Eriesjön","name_tr":"Erie","name_vi":"Erie","name_zh":"伊利湖","ne_id":1159106757,"name_fa":"دریاچه ایری","name_he":"ימת אירי","name_uk":"Ері","name_ur":"جھیل ایری","name_zht":"伊利湖"},"bbox":[-83.462833,41.435921,-78.900579,42.965001],"geometry":{"type":"Polygon","coordinates":[[[-83.120011,42.080016],[-82.571233,42.017022],[-81.829186,42.33553],[-81.392262,42.615177],[-81.094967,42.660756],[-80.545156,42.56009],[-80.279177,42.715662],[-79.791351,42.842036],[-78.920009,42.965001],[-78.900579,42.866712],[-79.762206,42.269617],[-80.516449,41.980332],[-81.031198,41.845508],[-81.623514,41.568936],[-82.347449,41.435921],[-82.8461,41.487106],[-83.462833,41.693967],[-83.120011,42.080016],[-83.120011,42.080016]]]}},{"type":"Feature","properties":{"scalerank":0,"featurecla":"Lake","name":"Lake Superior","name_alt":"Great Lakes","admin":"admin-0","min_zoom":1,"min_label":3,"name_abb":"L. Superior","label":"Lake Superior","wikidataid":"Q1066","name_ar":"بحيرة سوبيريور","name_bn":"সুপিরিয়র হ্রদ","name_de":"Oberer","name_en":"Superior","name_es":"Superior","name_fr":"Supérieur","name_el":"λίμνη Σουπίριορ","name_hi":"सुपीरियर झील","name_hu":"Felső-tó","name_id":"Danau Superior","name_it":"Superiore","name_ja":"スペリオル湖","name_ko":"슈피리어호","name_nl":"Bovenmeer","name_pl":"Jezioro Górne","name_pt":"Superior","name_ru":"Верхнее озеро","name_sv":"Övre sjön","name_tr":"Superior","name_vi":"Thượng","name_zh":"苏必利尔湖","ne_id":1159112991,"name_fa":"دریاچه سوپریور","name_he":"ימת סופיריור","name_uk":"Озеро Верхнє","name_ur":"جھیل سپیریئر","name_zht":"苏必利尔湖"},"bbox":[-92.011923,46.439595,-84.395592,48.936703],"geometry":{"type":"Polygon","coordinates":[[[-89.600003,48.00999],[-89.194059,48.405469],[-88.626419,48.562514],[-88.404237,48.806324],[-88.178953,48.936703],[-87.249036,48.735113],[-86.560008,48.711084],[-86.32103,48.577294],[-85.986529,48.010351],[-84.86422,47.860076],[-85.040618,47.575701],[-84.645009,47.282205],[-84.815283,46.902331],[-84.395592,46.776835],[-84.604908,46.439595],[-84.910005,46.480006],[-85.119993,46.760014],[-86.10262,46.672655],[-86.990008,46.450007],[-87.69428,46.831044],[-88.261222,46.958581],[-87.939924,47.485913],[-88.822609,47.154796],[-89.624989,46.830837],[-90.397035,46.576486],[-91.009995,46.920005],[-92.011923,46.711671],[-92.008771,46.858432],[-91.330001,47.280008],[-90.619993,47.68001],[-89.600003,48.00999]]]}},{"type":"Feature","properties":{"scalerank":0,"featurecla":"Lake","name":"Lake Victoria","name_alt":null,"admin":"admin-0","min_zoom":1,"min_label":3,"name_abb":"L. Victoria","label":"Lake Victoria","wikidataid":"Q5505","name_ar":"بحيرة فيكتوريا","name_bn":"ভিক্টোরিয়া হ্রদ","name_de":"Victoriasee","name_en":"Nyanza","name_es":"Victoria","name_fr":"Victoria","name_el":"Βικτόρια","name_hi":"विक्टोरिया झील","name_hu":"Viktória-tó","name_id":"Danau Victoria","name_it":"Vittoria","name_ja":"ヴィクトリア湖","name_ko":"빅토리아호","name_nl":"Victoriameer","name_pl":"Jezioro Wiktorii","name_pt":"Vitória","name_ru":"Виктория","name_sv":"Victoriasjön","name_tr":"Victoria","name_vi":"Victoria","name_zh":"維多利亞湖","ne_id":1159113191,"name_fa":"دریاچه ویکتوریا","name_he":"אגם ויקטוריה","name_uk":"Вікторія","name_ur":"جھیل وکٹوریہ","name_zht":"維多利亞湖"},"bbox":[31.648022,-2.714511,34.136242,0.324993],"geometry":{"type":"Polygon","coordinates":[[[33.850368,0.128158],[33.850368,0.128158],[34.136242,-0.319308],[34.072629,-1.059832],[33.579429,-1.506006],[33.251748,-1.957968],[33.647177,-2.300893],[33.07672,-2.547131],[32.951767,-2.430446],[32.373094,-2.489925],[31.926558,-2.714511],[31.648022,-2.329212],[31.836021,-1.629306],[31.8662,-1.027379],[31.815144,-0.640426],[32.272842,-0.05612],[32.906137,0.086765],[33.331847,0.324993],[33.850368,0.128158]]]}},{"type":"Feature","properties":{"scalerank":0,"featurecla":"Lake","name":"Lake Ladoga","name_alt":null,"admin":null,"min_zoom":1,"min_label":3,"name_abb":"L. Ladoga","label":"Lake Ladoga","wikidataid":"Q15288","name_ar":"بحيرة لادوغا","name_bn":"লাডোগা হ্রদ","name_de":"Ladogasee","name_en":"Ladoga","name_es":"Ládoga","name_fr":"Ladoga","name_el":"Λάντογκα","name_hi":"लादोगा झील","name_hu":"Ladoga-tó","name_id":"Danau Ladoga","name_it":"Ladoga","name_ja":"ラドガ湖","name_ko":"라도가호","name_nl":"Ladogameer","name_pl":"Ładoga","name_pt":"Ladoga","name_ru":"Ладожское озеро","name_sv":"Ladoga","name_tr":"Ladoga","name_vi":"Ladoga","name_zh":"拉多加湖","ne_id":1159113095,"name_fa":"دریاچه لادوگا","name_he":"ימת לדוגה","name_uk":"Ладозьке озеро","name_ur":"جھیل لاڈوگا","name_zht":"拉多加湖"},"bbox":[29.836711,59.920348,32.944325,61.775041],"geometry":{"type":"Polygon","coordinates":[[[29.836711,61.226082],[29.836711,61.226082],[30.851998,61.775041],[32.526883,61.11751],[32.944325,60.642604],[32.815754,60.48189],[32.599902,60.533515],[32.583882,60.208935],[31.69944,60.235652],[31.509736,59.920348],[31.106246,59.927686],[31.108934,60.146458],[30.533878,60.630098],[30.502046,60.843212],[29.836711,61.226082]]]}},{"type":"Feature","properties":{"scalerank":0,"featurecla":"Lake","name":"Lake Balkhash","name_alt":"Balqash Köli","admin":null,"min_zoom":1,"min_label":3,"name_abb":"L. Balkhash","label":"Lake Balkhash","wikidataid":"Q134485","name_ar":"بحيرة بالكاش","name_bn":"লেক বালখাশ","name_de":"Balchaschsee","name_en":"Balkhash","name_es":"Baljash","name_fr":"Balkhach","name_el":"Λίμνη Μπαλκάς","name_hi":"बलख़श झील","name_hu":"Balkas-tó","name_id":"Danau Balkhash","name_it":"Balqaš","name_ja":"バルハシ湖","name_ko":"발하시호","name_nl":"Balkasjmeer","name_pl":"Bałchasz","name_pt":"Balkhash","name_ru":"Балхаш","name_sv":"Balchasjsjön","name_tr":"Balkaş","name_vi":"Balkhash","name_zh":"巴尔喀什湖","ne_id":1159113111,"name_fa":"دریاچه بالخاش","name_he":"ימת בלחש","name_uk":"Балхаш","name_ur":"جھیل بالخاش","name_zht":"巴爾喀什湖"},"bbox":[73.436738,44.988934,79.245168,46.816781],"geometry":{"type":"Polygon","coordinates":[[[78.990765,46.74862],[78.990765,46.74862],[79.245168,46.645163],[78.889893,46.369935],[78.445062,46.297174],[77.206068,46.395566],[75.611282,46.507187],[75.463332,46.670614],[75.405661,46.470807],[74.911221,46.404661],[74.771385,46.107832],[74.27803,46.004066],[74.099953,44.988934],[73.436738,45.609464],[73.439993,45.805861],[73.737133,46.012747],[73.679255,46.183073],[74.020681,46.204906],[74.09432,46.427812],[74.939385,46.816781],[76.203132,46.780013],[77.181315,46.643406],[77.85993,46.647851],[78.297009,46.468533],[78.397107,46.657669],[78.990765,46.74862]]]}},{"type":"Feature","properties":{"scalerank":0,"featurecla":"Lake","name":"Lake Tanganyika","name_alt":null,"admin":"admin-0","min_zoom":1,"min_label":3,"name_abb":"L. Tanganyika","label":"Lake Tanganyika","wikidataid":"Q5511","name_ar":"بحيرة تنجانيقا","name_bn":"টাংগানিকা হ্রদ","name_de":"Tanganjikasee","name_en":"Tanganyika","name_es":"Tanganica","name_fr":"Tanganyika","name_el":"Τανγκανίκα","name_hi":"तांगान्यीका झील","name_hu":"Tanganyika-tó","name_id":"Danau Tanganyika","name_it":"Tanganica","name_ja":"タンガニーカ湖","name_ko":"탕가니카호","name_nl":"Tanganyikameer","name_pl":"Tanganika","name_pt":"Tanganica","name_ru":"Танганьика","name_sv":"Tanganyikasjön","name_tr":"Tanganika","name_vi":"Tanganyika","name_zh":"坦干依喀湖","ne_id":1159113185,"name_fa":"دریاچه تانگانیکا","name_he":"אגם טנגניקה","name_uk":"Танганьїка","name_ur":"جھیل ٹانگانیکا","name_zht":"坦干依喀湖"},"bbox":[29.101718,-8.786543,31.189032,-3.455499],"geometry":{"type":"Polygon","coordinates":[[[30.806006,-8.578339],[30.464425,-8.498189],[30.566848,-8.115008],[30.277356,-7.848358],[30.147028,-7.299244],[29.536523,-6.754161],[29.193185,-6.038029],[29.371985,-5.616453],[29.101718,-5.054006],[29.281035,-3.455499],[29.652588,-4.420143],[29.600085,-4.896393],[29.79196,-5.040881],[29.758422,-5.466901],[29.951226,-5.860986],[29.722041,-6.244115],[30.528039,-6.92273],[30.604158,-7.541917],[31.189032,-8.729906],[31.022117,-8.786543],[30.806006,-8.578339],[30.806006,-8.578339]]]}},{"type":"Feature","properties":{"scalerank":0,"featurecla":"Lake","name":"Lake Malawi","name_alt":"Lake Nyasa","admin":"admin-0","min_zoom":1,"min_label":3,"name_abb":"L. Malawi","label":"Lake Malawi","wikidataid":"Q5532","name_ar":"بحيرة ملاوي","name_bn":"মালাউই হ্রদ","name_de":"Malawisee","name_en":"Malawi","name_es":"Malaui","name_fr":"Malawi","name_el":"Λίμνη Νιάσα","name_hi":"मलावी झील","name_hu":"Nyasza-tó","name_id":"Danau Malawi","name_it":"Malawi","name_ja":"マラウイ湖","name_ko":"말라위호","name_nl":"Malawimeer","name_pl":"Niasa","name_pt":"Niassa","name_ru":"Малави","name_sv":"Malawisjön","name_tr":"Malavi","name_vi":"Malawi","name_zh":"马拉维湖","ne_id":1159113163,"name_fa":"دریاچه مالاوی","name_he":"אגם מלאווי","name_uk":"Ньяса","name_ur":"جھیل ملاوی","name_zht":"马拉维湖"},"bbox":[33.906592,-14.401291,35.260205,-9.495441],"geometry":{"type":"Polygon","coordinates":[[[35.260205,-14.277474],[35.236227,-14.401291],[34.88121,-14.012013],[34.706543,-14.262023],[34.54676,-14.047669],[34.551101,-13.672085],[34.320934,-13.37939],[34.329977,-12.944584],[34.032528,-12.208557],[34.322691,-11.652983],[34.259904,-10.447579],[33.906592,-9.801727],[33.995579,-9.495441],[34.524229,-10.030137],[34.607893,-11.080512],[34.93702,-11.463434],[34.693883,-12.422394],[34.867567,-13.701127],[35.055979,-13.742933],[35.260205,-14.277474]]]}},{"type":"Feature","properties":{"scalerank":1,"featurecla":"Lake","name":"Vänern","name_alt":null,"admin":null,"min_zoom":1.7,"min_label":3.6,"name_abb":"Vänern","label":"Vänern","wikidataid":"Q173596","name_ar":"بحيرة فنرن","name_bn":"ভেনার্ন","name_de":"Vänern","name_en":"Vänern","name_es":"Vänern","name_fr":"Vänern","name_el":"Βένερν","name_hi":"वेनर्न","name_hu":"Vänern-tó","name_id":"Vänern","name_it":"Vänern","name_ja":"ヴェーネルン湖","name_ko":"베네른호","name_nl":"Vänermeer","name_pl":"Wener","name_pt":"Vänern","name_ru":"Венерн","name_sv":"Vänern","name_tr":"Vänern","name_vi":"Vänern","name_zh":"维纳恩湖","ne_id":1159113235,"name_fa":"دریاچه ونرن","name_he":"ונן","name_uk":"Венерн","name_ur":"وینرن","name_zht":"維納恩湖"},"bbox":[12.460149,58.506197,13.984449,59.336482],"geometry":{"type":"Polygon","coordinates":[[[13.979281,59.204914],[13.979281,59.204914],[13.984449,59.086213],[13.918923,58.902503],[13.282683,58.608671],[12.830101,58.509039],[12.460149,58.506197],[12.537767,58.775948],[12.522161,58.880282],[12.697086,58.953844],[13.02704,58.993531],[13.195298,59.129001],[13.59145,59.336482],[13.979281,59.204914]]]}},{"type":"Feature","properties":{"scalerank":1,"featurecla":"Lake","name":"Lake Okeechobee","name_alt":null,"admin":null,"min_zoom":1.7,"min_label":3.6,"name_abb":"L. Okeechobee","label":"Lake Okeechobee","wikidataid":"Q202905","name_ar":"بحيرة أوكي تشوبي","name_bn":"লেক ওকীচোবী","name_de":"Okeechobeesee","name_en":"Okeechobee","name_es":"Okeechobee","name_fr":"Okeechobee","name_el":"Λίμνη Οκιτσόμπι","name_hi":"ओकेचोबी झील","name_hu":"Okeechobbee-tó","name_id":"Danau Okeechobee","name_it":"Okeechobee","name_ja":"オキーチョビー湖","name_ko":"오키초비호","name_nl":"Okeechobeemeer","name_pl":"Okeechobee","name_pt":"Okeechobee","name_ru":"Окичоби","name_sv":"Okeechobee","name_tr":"Okeechobee","name_vi":"Hồ Okeechobee","name_zh":"奧基喬比湖","ne_id":1159106781,"name_fa":"دریاچه اوکیچوبی","name_he":"אגם אוקיצ'ובי","name_uk":"Окічобі","name_ur":"جھیل اوکیجوبی","name_zht":"奧基喬比湖"},"bbox":[-80.932445,26.788959,-80.6937,27.068917],"geometry":{"type":"Polygon","coordinates":[[[-80.706438,26.788959],[-80.932445,26.823273],[-80.919706,27.068917],[-80.6937,27.034629],[-80.706438,26.788959],[-80.706438,26.788959]]]}},{"type":"Feature","properties":{"scalerank":1,"featurecla":"Lake","name":"Lago de Nicaragua","name_alt":null,"admin":null,"min_zoom":1.7,"min_label":3.6,"name_abb":"L. de Nicaragua","label":"Lago de Nicaragua","wikidataid":"Q173862","name_ar":"بحيرة نيكاراغوا","name_bn":"নিকারাগুয়া হ্রদ","name_de":"Nicaraguasee","name_en":"Nicaragua","name_es":"Cocibolca","name_fr":"Nicaragua","name_el":"Λίμνη Νικαράγουα","name_hi":"निकारागुआ झील","name_hu":"Nicaragua-tó","name_id":"Danau Nikaragua","name_it":"Nicaragua","name_ja":"ニカラグア湖","name_ko":"니카라과호","name_nl":"Meer van Nicaragua","name_pl":"Nikaragua","name_pt":"Nicarágua","name_ru":"Никарагуа","name_sv":"Nicaraguasjön","name_tr":"Nikaragua","name_vi":"Nicaragua","name_zh":"尼加拉瓜湖","ne_id":1159106791,"name_fa":"دریاچه نیکاراگوئه","name_he":"אגם ניקרגואה","name_uk":"Нікарагуа","name_ur":"جھیل نکاراگوا","name_zht":"尼加拉瓜湖"},"bbox":[-85.885166,11.147899,-84.855487,11.940331],"geometry":{"type":"Polygon","coordinates":[[[-84.855487,11.147899],[-85.290137,11.176166],[-85.791321,11.509737],[-85.885166,11.900101],[-85.56534,11.940331],[-85.036845,11.521648],[-84.855487,11.147899],[-84.855487,11.147899]]]}},{"type":"Feature","properties":{"scalerank":1,"featurecla":"Lake","name":"Lake Tana","name_alt":null,"admin":null,"min_zoom":1.7,"min_label":3.6,"name_abb":"L. Tana","label":"Lake Tana","wikidataid":"Q116685","name_ar":"بحيرة تانا","name_bn":"তানা হ্রদ","name_de":"Tanasee","name_en":"Tana","name_es":"Tana","name_fr":"Tana","name_el":"Τάνα","name_hi":"ताना झील","name_hu":"Tana-tó","name_id":"Danau Tana","name_it":"Tana","name_ja":"タナ湖","name_ko":"타나호","name_nl":"Tanameer","name_pl":"Jezioro Tana","name_pt":"Tana","name_ru":"Тана","name_sv":"Tanasjön","name_tr":"Tana Gölü","name_vi":"Tana","name_zh":"塔纳湖","ne_id":1159113265,"name_fa":"دریاچه تانا","name_he":"אגם טאנה","name_uk":"Тана","name_ur":"جھیل ٹانا","name_zht":"塔納湖"},"bbox":[37.014826,11.713394,37.518361,12.233879],"geometry":{"type":"Polygon","coordinates":[[[37.143707,11.850595],[37.014826,12.035596],[37.244011,12.233879],[37.518361,12.160602],[37.481878,11.825092],[37.336357,11.713394],[37.143707,11.850595],[37.143707,11.850595]]]}},{"type":"Feature","properties":{"scalerank":1,"featurecla":"Lake","name":"Lago Titicaca","name_alt":null,"admin":null,"min_zoom":1.7,"min_label":3.6,"name_abb":"L. Titicaca","label":"Lago Titicaca","wikidataid":"Q35342","name_ar":"بحيرة تيتيكاكا","name_bn":"তিতিকাকা হ্রদ","name_de":"Titicacasee","name_en":"Titicaca","name_es":"Titicaca","name_fr":"Titicaca","name_el":"Τιτικάκα","name_hi":"टीटीकाका झील","name_hu":"Titicaca-tó","name_id":"Danau Titicaca","name_it":"Titicaca","name_ja":"チチカカ湖","name_ko":"티티카카호","name_nl":"Titicacameer","name_pl":"Titicaca","name_pt":"Titicaca","name_ru":"Титикака","name_sv":"Titicacasjön","name_tr":"Titikaka","name_vi":"Titicaca","name_zh":"的的喀喀湖","ne_id":1159113279,"name_fa":"دریاچه تیتیکاکا","name_he":"אגם טיטיקקה","name_uk":"Тітікака","name_ur":"جھیل ٹیٹیکاکا","name_zht":"的的喀喀湖"},"bbox":[-69.983656,-16.536406,-68.746238,-15.354256],"geometry":{"type":"Polygon","coordinates":[[[-69.40674,-16.126199],[-69.729097,-15.928795],[-69.983656,-15.737179],[-69.877021,-15.669844],[-69.867978,-15.546079],[-69.8856,-15.354256],[-69.596754,-15.41048],[-68.986972,-15.885903],[-68.959687,-15.913292],[-68.746238,-16.356004],[-68.905246,-16.506641],[-69.001157,-16.536406],[-69.090842,-16.461992],[-69.182051,-16.401169],[-69.250987,-16.227536],[-69.40674,-16.126199],[-69.40674,-16.126199]]]}},{"type":"Feature","properties":{"scalerank":1,"featurecla":"Lake","name":"Cedar Lake","name_alt":null,"admin":null,"min_zoom":1.7,"min_label":5,"name_abb":"Cedar L.","label":"Cedar Lake","wikidataid":"Q1052532","name_ar":"سيدار ليك","name_bn":"সেডার লেক","name_de":"Cedar","name_en":"Cedar","name_es":"Cedar","name_fr":"Cèdres","name_el":"Λίμνη Σένταρ","name_hi":"सिडर लेक","name_hu":"Cedar-tó","name_id":"Danau Cedar","name_it":"Cedar","name_ja":"シーダー湖","name_ko":"시더 레이크","name_nl":"Cedar","name_pl":"Cedar","name_pt":"Cedar","name_ru":"Сидар","name_sv":"Cedar","name_tr":"Cedar Gölü","name_vi":"Hồ Cedar","name_zh":"錫達湖","ne_id":1159123681,"name_fa":"دریاچه سدار","name_he":"סידר לייק","name_uk":"Сідар","name_ur":"کیدار جھیل","name_zht":"錫達湖"},"bbox":[-100.606851,53.120427,-99.393178,54.230334],"geometry":{"type":"Polygon","coordinates":[[[-99.403772,53.125853],[-99.548466,53.120427],[-99.804988,53.142906],[-100.431461,53.28419],[-100.606851,53.531617],[-100.334878,53.745247],[-100.426733,53.907408],[-100.404486,53.94508],[-100.3263,54.094011],[-100.235866,54.230334],[-99.995493,54.215864],[-100.047789,54.100135],[-100.183569,53.930352],[-99.871289,53.928466],[-99.910666,53.821315],[-100.056497,53.443327],[-99.665513,53.295817],[-99.393178,53.267912],[-99.403772,53.125853],[-99.403772,53.125853]]]}},{"type":"Feature","properties":{"scalerank":1,"featurecla":"Lake","name":"Lake Onega","name_alt":null,"admin":null,"min_zoom":1.7,"min_label":3.6,"name_abb":"L. Onega","label":"Lake Onega","wikidataid":"Q166162","name_ar":"بحيرة أونيغا","name_bn":"লেক ওনেগা","name_de":"Onegasee","name_en":"Onega","name_es":"Onega","name_fr":"Onega","name_el":"Λίμνη Ονέγκα","name_hi":"ओनेगा झील","name_hu":"Onyega-tó","name_id":"Danau Onega","name_it":"Onega","name_ja":"オネガ湖","name_ko":"오네가호","name_nl":"Onegameer","name_pl":"Onega","name_pt":"Onega","name_ru":"Онежское озеро","name_sv":"Onega","name_tr":"Onega","name_vi":"Onega","name_zh":"奥涅加湖","ne_id":1159113251,"name_fa":"دریاچه اونگا","name_he":"ימת אונגה","name_uk":"Онезьке озеро","name_ur":"جھیل اونیگا","name_zht":"奧涅加湖"},"bbox":[34.26502,60.94858,36.391402,62.762448],"geometry":{"type":"Polygon","coordinates":[[[35.714647,62.28023],[36.054161,61.716311],[36.391402,61.276053],[36.109455,61.015087],[35.350742,60.94858],[34.866844,61.116373],[35.207288,61.114435],[35.578325,61.086349],[35.160004,61.394289],[34.857335,61.551799],[34.486919,61.866973],[34.26502,62.219148],[34.289825,62.297748],[34.665616,62.229794],[34.626135,62.452235],[34.835631,62.296766],[35.080267,62.141194],[35.21659,62.193284],[35.463706,62.256019],[35.139695,62.487762],[34.614353,62.762448],[34.995415,62.74847],[35.233953,62.675348],[35.714647,62.28023]]]}},{"type":"Feature","properties":{"scalerank":1,"featurecla":"Lake","name":"Great Salt Lake","name_alt":null,"admin":null,"min_zoom":1.7,"min_label":3.6,"name_abb":"Great Salt L.","label":"Great Salt Lake","wikidataid":"Q178741","name_ar":"البحيرة المالحة الكبرى","name_bn":"গ্রেট সল্ট লেক","name_de":"Großer Salzsee","name_en":"Great Salt","name_es":"Gran Salado","name_fr":"Grand Salé","name_el":"Μεγάλη Αλμυρή Λίμνη","name_hi":"महान नमक झील","name_hu":"Nagy-sóstó","name_id":"Danau Garam Besar","name_it":"Gran Salato","name_ja":"グレートソルト湖","name_ko":"그레이트솔트호","name_nl":"Great Salt","name_pl":"Wielkie Jezioro Słone","name_pt":"Grande Salgado","name_ru":"Большое Солёное озеро","name_sv":"Stora Saltsjön","name_tr":"Büyük Tuz","name_vi":"Muối Lớn","name_zh":"大盐湖","ne_id":1159113251,"name_fa":"دریاچه نمک یوتا","name_he":"ימת המלח הגדולה","name_uk":"Велике Солоне озеро","name_ur":"گریٹ سالٹ لیک","name_zht":"大鹽湖"},"bbox":[-112.878143,40.85146,-112.138757,41.628157],"geometry":{"type":"Polygon","coordinates":[[[-112.184051,41.341249],[-112.138757,41.142347],[-112.171933,40.85146],[-112.678827,41.130487],[-112.705492,41.167539],[-112.878143,41.628157],[-112.589556,41.438918],[-112.40533,41.33802],[-112.21901,41.428557],[-112.184051,41.341249]]]}},{"type":"Feature","properties":{"scalerank":1,"featurecla":"Lake","name":"Great Bear Lake","name_alt":null,"admin":null,"min_zoom":1.7,"min_label":3.6,"name_abb":"Great Bear L.","label":"Great Bear Lake","wikidataid":"Q5525","name_ar":"بحيرة الدب العظيم","name_bn":"গ্রেট বেয়ার লেক","name_de":"Großer Bärensee","name_en":"Great Bear","name_es":"Gran Oso","name_fr":"grand l'Ours","name_el":"Μεγάλη Λίμνη των Άρκτων","name_hi":"ग्रेट बियर झील","name_hu":"Nagy-Medve-tó","name_id":"Danau Beruang Besar","name_it":"Grande Orsi","name_ja":"グレートベア湖","name_ko":"그레이트베어호","name_nl":"Groot Berenmeer","name_pl":"Wielkie Jezioro Niedźwiedzie","name_pt":"Grande Urso","name_ru":"Большое Медвежье озеро","name_sv":"Stora Björnsjön","name_tr":"Büyük Ayı","name_vi":"Gấu lớn","name_zh":"大熊湖","ne_id":1159106721,"name_fa":"دریاچه گریت بر","name_he":"ימת הדובים הגדולה","name_uk":"Велике Ведмеже озеро","name_ur":"گریٹ بیئر لیک","name_zht":"大熊湖"},"bbox":[-124.953634,64.879994,-117.605452,66.969298],"geometry":{"type":"Polygon","coordinates":[[[-117.759292,66.223684],[-117.97375,65.854895],[-118.107101,65.766916],[-119.720052,65.734799],[-119.745684,65.654365],[-119.66481,65.527422],[-119.702198,65.367948],[-121.355094,64.879994],[-121.336103,64.994612],[-120.945274,65.377741],[-121.057283,65.446341],[-122.564504,65.03107],[-123.232706,65.180415],[-123.179634,65.319372],[-122.325991,65.793788],[-122.356222,65.901843],[-124.953634,66.04925],[-124.89754,66.151156],[-119.48725,66.969298],[-119.357438,66.875195],[-120.176949,66.465272],[-117.605452,66.559348],[-117.61279,66.419977],[-117.759292,66.223684],[-117.759292,66.223684]]]}},{"type":"Feature","properties":{"scalerank":1,"featurecla":"Lake","name":"Lake Athabasca","name_alt":null,"admin":null,"min_zoom":1.7,"min_label":3.7,"name_abb":"L. Athabasca","label":"Lake Athabasca","wikidataid":"Q272463","name_ar":"بحيرة أثاباسكا","name_bn":"আথাবাস্কা হ্রদ","name_de":"Athabascasee","name_en":"Athabasca","name_es":"Athabasca","name_fr":"Athabasca","name_el":"Λίμνη Αθαμπάσκα","name_hi":"अथाबास्का झील","name_hu":"Atapaszka-tó","name_id":"Danau Athabasca","name_it":"Athabasca","name_ja":"アサバスカ湖","name_ko":"레이크 애서배스카","name_nl":"Athabascameer","name_pl":"Athabaska","name_pt":"Athabasca","name_ru":"Атабаска","name_sv":"Athabascasjön","name_tr":"Athabasca","name_vi":"Hồ Athabasca","name_zh":"阿萨巴斯卡湖","ne_id":1159106863,"name_fa":"دریاچه آتاباسکا","name_he":"אגם אתבסקה","name_uk":"Атабаска","name_ur":"جھیل اتھابسکا","name_zht":"阿薩巴斯卡湖"},"bbox":[-111.199486,58.560173,-106.545171,59.550422],"geometry":{"type":"Polygon","coordinates":[[[-109.653301,59.037637],[-111.086263,58.560173],[-111.199486,58.685565],[-111.160005,58.75985],[-109.09672,59.550422],[-106.545171,59.319687],[-106.546953,59.292815],[-109.653301,59.037637],[-109.653301,59.037637]]]}},{"type":"Feature","properties":{"scalerank":1,"featurecla":"Lake","name":"Reindeer Lake","name_alt":null,"admin":null,"min_zoom":1.7,"min_label":3.7,"name_abb":"Reindeer L.","label":"Reindeer Lake","wikidataid":"Q1134446","name_ar":"بحيرة ريندير","name_bn":"রেইনডিয়ার লেক","name_de":"Reindeer","name_en":"Reindeer","name_es":"Reindeer","name_fr":"Reindeer","name_el":"Λίμνη Ρέιντιρ","name_hi":"रेनडियर झील","name_hu":"Reindeer-tó","name_id":"Danau Reindeer","name_it":"delle Renne","name_ja":"レーンディア湖","name_ko":"레인디어호","name_nl":"Reindeer","name_pl":"Jezioro Reniferowe","name_pt":"Reindeer","name_ru":"Оленье озеро","name_sv":"Reindeer","name_tr":"Reindeer Gölü","name_vi":"Hồ Reindeer","name_zh":"驯鹿湖","ne_id":1159106817,"name_fa":"دریاچه ریندیر","name_he":"אגם האיילים","name_uk":"Оленяче","name_ur":"رین ڈیئر جھیل","name_zht":"馴鹿湖"},"bbox":[-103.282502,56.345398,-101.543848,58.019146],"geometry":{"type":"Polygon","coordinates":[[[-101.895144,58.01403],[-101.895144,58.01403],[-101.543848,57.868096],[-101.970902,57.34867],[-101.934031,57.230667],[-103.20416,56.345398],[-103.282502,56.409942],[-103.148737,56.70411],[-103.078328,56.710802],[-103.014404,56.565101],[-102.576808,56.938282],[-102.813228,57.28715],[-102.813693,57.464348],[-102.128748,58.019146],[-101.895144,58.01403]]]}},{"type":"Feature","properties":{"scalerank":0,"featurecla":"Lake","name":"Lake Huron","name_alt":"Great Lakes","admin":"admin-0","min_zoom":1,"min_label":3,"name_abb":"L. Huron","label":"Lake Huron","wikidataid":"Q1383","name_ar":"بحيرة هرون","name_bn":"লেক হুরন","name_de":"Huronsee","name_en":"Huron","name_es":"Hurón","name_fr":"Huron","name_el":"Λίμνη Χιούρον","name_hi":"ह्यूरॉन झील","name_hu":"Huron-tó","name_id":"Danau Huron","name_it":"Huron","name_ja":"ヒューロン湖","name_ko":"휴런호","name_nl":"Huronmeer","name_pl":"Huron","name_pt":"Huron","name_ru":"Гурон","name_sv":"Huronsjön","name_tr":"Huron","name_vi":"Huron","name_zh":"休伦湖","ne_id":1159113021,"name_fa":"دریاچه هیوران","name_he":"ימת יורון","name_uk":"Гурон","name_ur":"جھیل ہیورون","name_zht":"休伦湖"},"bbox":[-84.930004,42.980013,-79.762929,46.555763],"geometry":{"type":"Polygon","coordinates":[[[-80.410564,45.590137],[-79.762929,44.824603],[-80.085003,44.493925],[-80.897692,44.631643],[-81.402338,45.250055],[-81.275679,44.620171],[-81.752653,44.064649],[-81.700176,43.590053],[-81.782729,43.310845],[-82.430002,42.980013],[-82.479999,43.390013],[-82.659988,43.970004],[-83.029991,44.069998],[-83.650005,43.629999],[-83.848701,43.638319],[-83.89999,43.889983],[-83.349997,44.29001],[-83.258788,44.745745],[-83.339998,45.200006],[-84.080004,45.589982],[-84.930004,45.789996],[-84.753555,45.924484],[-84.719991,45.919988],[-83.839192,46.010215],[-84.336707,46.40877],[-84.148708,46.555763],[-83.95257,46.334278],[-83.202513,46.210151],[-82.441991,46.199635],[-81.631368,46.097548],[-80.736798,45.903813],[-80.410564,45.590137]]]}},{"type":"Feature","properties":{"scalerank":0,"featurecla":"Lake","name":"Lake Michigan","name_alt":"Great Lakes","admin":"admin-0","min_zoom":1,"min_label":3,"name_abb":"L. Michigan","label":"Lake Michigan","wikidataid":"Q1169","name_ar":"بحيرة ميشيغين","name_bn":"মিশিগান হ্রদ","name_de":"Michigansee","name_en":"Michigan","name_es":"Míchigan","name_fr":"Michigan","name_el":"Λίμνη Μίσιγκαν","name_hi":"मिशिगन झील","name_hu":"Michigan-tó","name_id":"Danau Michigan","name_it":"Michigan","name_ja":"ミシガン湖","name_ko":"미시간호","name_nl":"Michiganmeer","name_pl":"Michigan","name_pt":"Michigan","name_ru":"Мичиган","name_sv":"Michigansjön","name_tr":"Michigan","name_vi":"Michigan","name_zh":"密歇根湖","ne_id":1159113005,"name_fa":"دریاچه میشیگان","name_he":"ימת מישיגן","name_uk":"Мічиган","name_ur":"جھیل مشی گن","name_zht":"密歇根湖"},"bbox":[-87.988319,41.640714,-84.753555,46.030007],"geometry":{"type":"Polygon","coordinates":[[[-85.539993,46.030007],[-84.753555,45.924484],[-84.930004,45.789996],[-85.069996,45.409993],[-85.290447,45.308242],[-85.467103,44.814578],[-85.559992,45.150009],[-85.959838,44.910592],[-86.209358,44.574799],[-86.470272,44.084235],[-86.520011,43.659997],[-86.188429,43.041404],[-86.21605,42.381703],[-86.621916,41.89442],[-86.824436,41.756185],[-87.094446,41.646166],[-87.434218,41.640714],[-87.526177,41.708514],[-87.795695,42.234115],[-87.803446,42.493996],[-87.77673,42.740854],[-87.902148,43.230514],[-87.712212,43.7965],[-87.48636,44.493357],[-86.967477,45.262871],[-87.118062,45.259331],[-87.852823,44.615055],[-87.988319,44.733316],[-87.596431,45.093708],[-87.000007,45.739999],[-86.319997,45.829994],[-85.539993,46.030007]]]}}],"bbox":[-124.953634400057,-16.536406345285,109.929807163535,66.9692975938512]}
